#aV2012  1  3  0  0   .00000000      96 DD+AD WGS84 FIT  NGA
## 1669 172800.00000000   900.00000000 55929  .0000000000000
+   31     1  2  3  4  5  6  7  8  9 10 11 12 13 14 15 16 17
+         18 19 20 21 22 23 25 26 27 28 29 30 31 32  0  0  0
+          0  0  0  0  0  0  0  0  0  0  0  0  0  0  0  0  0
+          0  0  0  0  0  0  0  0  0  0  0  0  0  0  0  0  0
+          0  0  0  0  0  0  0  0  0  0  0  0  0  0  0  0  0
++         0  0  0  0  0  0  0  0  0  0  0  0  0  0  0  0  0
++         0  0  0  0  0  0  0  0  0  0  0  0  0  0  0  0  0
++         0  0  0  0  0  0  0  0  0  0  0  0  0  0  0  0  0
++         0  0  0  0  0  0  0  0  0  0  0  0  0  0  0  0  0
++         0  0  0  0  0  0  0  0  0  0  0  0  0  0  0  0  0
%c cc cc ccc ccc cccc cccc cccc cccc ccccc ccccc ccccc ccccc
%c cc cc ccc ccc cccc cccc cccc cccc ccccc ccccc ccccc ccccc
%f  0.0000000  0.000000000  0.00000000000  0.000000000000000
%f  0.0000000  0.000000000  0.00000000000  0.000000000000000
%i    0    0    0    0      0      0      0      0         0
%i    0    0    0    0      0      0      0      0         0
/*      NGA, ST. LOUIS,MO.                                  
/*   EPHEMERIS COMPUTED FROM  3 DAYS OF DATA                
/* CCCCCCCCCCCCCCCCCCCCCCCCCCCCCCCCCCCCCCCCCCCCCCCCCCCCCCCCC
/* CCCCCCCCCCCCCCCCCCCCCCCCCCCCCCCCCCCCCCCCCCCCCCCCCCCCCCCCC
*  2012  1  3 12  0   .00000000                                                 
P  1  14500.716602  -4835.851126  21702.506913    167.518344                    
V  1   6123.371923  26916.462596   1915.691961       .139836                    
P  2 -13694.631853 -19467.014702 -12202.469608    373.083485                    
V  2  -1004.724088 -15672.916975  25443.943626       .016456                    
P  3  22495.461078  11257.215797  -9413.912873    817.174586                    
V  3 -11656.069719    978.462796 -27761.484227       .050625                    
P  4  -6887.106198 -25409.145592  -1932.235095     52.336204                    
V  4   3277.151786  -2951.004915  31311.759738       .113499                    
P  5 -15437.052692  -6005.433286 -20808.588212   -265.985705                    
V  5  19018.199334 -18291.405625  -8717.353917      -.047173                    
P  6  19489.575834  13935.804856 -11613.299150     21.272419                    
V  6 -15130.958135  -1052.118422 -26086.841189       .032491                    
P  7   7834.611590 -18867.797959 -16814.693973     47.476475                    
V  7   5856.232820  20710.122342 -20716.946604       .024785                    
P  8   1755.843619 -25155.793080  -7273.172950       .276914                    
V  8   3120.709712   9126.186563 -31110.807269       .001267                    
P  9 -14675.884261    200.273085  21588.914794    129.332821                    
V  9  -6102.965240 -28018.381009  -3819.381973       .025354                    
P 10   2017.467676 -19183.141593 -18327.650882    -24.335907                    
V 10  18610.341029 -13602.344329  16896.807941      -.012520                    
P 11  18246.977692   1740.547865  18940.387928   -219.341828                    
V 11   9899.426461  23107.401476 -11107.302831      -.035886                    
P 12 -22163.149362   9174.080345  11213.715573     44.409350                    
V 12   9430.217083 -10901.935165  27749.935059       .022157                    
P 13  14722.761750  -8499.198380 -20568.196867    232.767605                    
V 13  23407.629446  10655.964351  12356.161141      -.020706                    
P 14   5828.567362  16711.750282  20026.698442    188.503805                    
V 14 -23512.940563  -8362.101756  13808.279398       .015628                    
P 15 -25733.699676  -2983.715334   6329.706560    -95.355303                    
V 15  -6821.384045  -5110.390892 -29951.437627       .007559                    
P 16  14400.498439   6663.540392 -21333.919304   -217.075549                    
V 16 -20479.628835  17625.904594  -8019.610769      -.018269                    
P 17  -3470.577355 -16566.850479  20681.047719    156.930587                    
V 17  24570.437731   8047.947242  10412.518039      -.021175                    
P 18 -15705.036095  20270.292303   6485.975854    174.967705                    
V 18  -8480.484291   2362.123131 -29826.126475       .018136                    
P 19  25336.486268   7491.375577   4225.719469   -221.784773                    
V 19   3961.739813   4377.271045 -30892.332905      -.039068                    
P 20  21848.782431 -11481.027542   9558.650766     59.294703                    
V 20  -6464.482862  11171.551916  27804.403723       .007670                    
P 21  -5317.655920  21986.070186 -12978.708057   -195.098337                    
V 21  -6984.564976 -16447.767585 -24764.062639      -.025775                    
P 22  -3299.883919  20024.959223  17251.218229    142.976991              E     
V 22 -17847.305325  12585.615720 -18318.475601       .001822                    
P 23  22708.014086  -2498.741323 -13819.260877    245.180395                    
V 23  15922.897076   7392.820632  24424.087032      -.033738                    
P 25 -20069.219889  17319.411144   1273.016776     30.844599                    
V 25   -589.846320  -3066.969983  31861.117861       .002785                    
P 26 -22520.826544 -13521.955827  -5746.080668   -285.293229                    
V 26   6533.632767   1021.387132 -30953.030197      -.140458                    
P 27 -16092.073412  -7634.975284  20480.619003    342.461241                    
V 27  -5549.469847 -23775.857777 -13238.780709       .038869                    
P 28   6977.261171 -20028.743068  16378.545197     99.172879                    
V 28  16317.344187 -11408.208648 -21864.594867       .035488                    
P 29 -15797.358471   8592.962556 -19468.465381    271.747077                    
V 29 -22878.074805  -9826.570835  14216.357233       .033501                    
P 30   6799.192369  14814.252747 -21322.733636      2.721560                    
V 30 -18119.349264  19030.798320   7579.700522      -.115472                    
P 31   7605.024965  24985.347377  -3882.046086    190.831831                    
V 31  -1319.126350   5572.423314  31829.906982       .048559                    
P 32  21299.728065  -2143.160961  15652.604290   -387.089216                    
V 32 -14274.242376  13728.669584  22082.886621      -.057701                    
EOF
